#cV2022  1 31  0  0  0.00000000    1905   SLR   ECF FIT NSGF
## 2195  86400.00000000   180.00000000 59610 0.0000000000000
+    1   L56  0  0  0  0  0  0  0  0  0  0  0  0  0  0  0  0
+          0  0  0  0  0  0  0  0  0  0  0  0  0  0  0  0  0
+          0  0  0  0  0  0  0  0  0  0  0  0  0  0  0  0  0
+          0  0  0  0  0  0  0  0  0  0  0  0  0  0  0  0  0
+          0  0  0  0  0  0  0  0  0  0  0  0  0  0  0  0  0
++         0  0  0  0  0  0  0  0  0  0  0  0  0  0  0  0  0
++         0  0  0  0  0  0  0  0  0  0  0  0  0  0  0  0  0
++         0  0  0  0  0  0  0  0  0  0  0  0  0  0  0  0  0
++         0  0  0  0  0  0  0  0  0  0  0  0  0  0  0  0  0
++         0  0  0  0  0  0  0  0  0  0  0  0  0  0  0  0  0
%c L  cc UTC ccc cccc cccc cccc cccc ccccc ccccc ccccc ccccc
%c cc cc ccc ccc cccc cccc cccc cccc ccccc ccccc ccccc ccccc
%f  0.0000000  0.000000000  0.00000000000  0.000000000000000
%f  0.0000000  0.000000000  0.00000000000  0.000000000000000
%i    0    0    0    0      0      0      0      0         0
%i    0    0    0    0      0      0      0      0         0
/*                                                          
/* Earth-centered-fixed orbital predictions from SGF ILRS AC
/* The underlying ECF frame is that of IERS/ITRF            
/* Note: Solution based on 4-day long arc                   
/*                                                          
*  2022  2  1 20 12  0.00000000
PL56  -2842.076814    165.633484   6580.695486
VL56 -60989.646000  34986.702000 -27215.465000
*  2022  2  1 20 15  0.00000000
PL56  -3876.023780    802.711052   5978.874756
VL56 -53557.202000  35561.996000 -39460.046000
*  2022  2  1 20 18  0.00000000
PL56  -4758.975399   1437.136146   5168.350736
VL56 -44266.826000  34684.350000 -50336.687000
*  2022  2  1 20 21  0.00000000
PL56  -5460.620132   2042.524831   4177.270637
VL56 -33476.624000  32338.262000 -59462.599000
*  2022  2  1 20 24  0.00000000
PL56  -5957.598592   2592.768170   3040.153428
VL56 -21598.493000  28570.019000 -66514.872000
*  2022  2  1 20 27  0.00000000
PL56  -6234.335508   3063.150445   1796.697947
VL56  -9082.663600  23487.926000 -71242.820000
*  2022  2  1 20 30  0.00000000
PL56  -6283.574154   3431.445024    490.384138
VL56   3599.872900  17259.544000 -73478.475000
*  2022  2  1 20 33  0.00000000
PL56  -6106.578338   3678.933021   -833.086806
VL56  15976.585000  10105.841000 -73143.840000
*  2022  2  1 20 36  0.00000000
PL56  -5712.987344   3791.289991  -2127.444113
VL56  27592.577000   2292.489800 -70253.937000
*  2022  2  1 20 39  0.00000000
PL56  -5120.331407   3759.296438  -3347.521470
VL56  38029.099000  -5881.074500 -64915.845000
*  2022  2  1 20 42  0.00000000
PL56  -4353.229365   3579.333773  -4450.875057
VL56  46919.629000 -14094.070000 -57323.763000
*  2022  2  1 20 45  0.00000000
PL56  -3442.319677   3253.644656  -5399.271419
VL56  53963.608000 -22018.199000 -47749.650000
*  2022  2  1 20 48  0.00000000
PL56  -2422.988736   2790.353039  -6159.989950
VL56  58935.415000 -29330.523000 -36531.988000
*  2022  2  1 20 51  0.00000000
PL56  -1333.962128   2203.251313  -6706.905640
VL56  61690.428000 -35726.230000 -24062.829000
*  2022  2  1 20 54  0.00000000
PL56   -215.815921   1511.365875  -7021.326401
VL56  62167.742000 -40930.380000 -10773.609000
*  2022  2  1 20 57  0.00000000
PL56    890.528507    738.324092  -7092.570721
VL56  60389.618000 -44708.324000   2879.377100
*  2022  2  1 21  0  0.00000000
PL56   1945.279404    -88.453249  -6918.289454
VL56  56458.746000 -46874.697000  16429.065000
*  2022  2  1 21  3  0.00000000
PL56   2911.181370   -938.713502  -6504.526889
VL56  50553.125000 -47301.294000  29412.311000
*  2022  2  1 21  6  0.00000000
PL56   3754.810167  -1780.458698  -5865.521656
VL56  42919.098000 -45923.267000  41384.109000
*  2022  2  1 21  9  0.00000000
PL56   4447.722755  -2581.126386  -5023.254608
VL56  33862.260000 -42743.437000  51931.562000
*  2022  2  1 21 12  0.00000000
PL56   4967.430958  -3308.835256  -4006.745124
VL56  23736.554000 -37834.781000  60687.808000
*  2022  2  1 21 15  0.00000000
PL56   5298.159020  -3933.649032  -2851.101181
VL56  12931.615000 -31340.132000  67345.243000
*  2022  2  1 21 18  0.00000000
PL56   5431.357126  -4428.807877  -1596.345288
VL56   1858.183900 -23468.824000  71667.300000
*  2022  2  1 21 21  0.00000000
PL56   5365.942809  -4771.874528   -286.043996
VL56  -9067.488800 -14490.515000  73498.150000
*  2022  2  1 21 24  0.00000000
PL56   5108.250917  -4945.740367   1034.213733
VL56 -19440.250000  -4725.821500  72769.772000
*  2022  2  1 21 27  0.00000000
PL56   4671.687040  -4939.436654   2318.432126
VL56 -28882.272000   5465.938600  69505.232000
*  2022  2  1 21 30  0.00000000
PL56   4076.098257  -4748.705083   3521.847816
VL56 -37057.973000  15700.960000  63817.930000
*  2022  2  1 21 33  0.00000000
PL56   3346.894394  -4376.301555   4602.521051
VL56 -43686.796000  25586.294000  55907.176000
*  2022  2  1 21 36  0.00000000
PL56   2513.962240  -3832.018513   5522.815444
VL56 -48553.250000  34735.682000  46050.241000
*  2022  2  1 21 39  0.00000000
PL56   1610.428392  -3132.425841   6250.708199
VL56 -51513.725000  42784.813000  34591.612000
*  2022  2  1 21 42  0.00000000
PL56    671.327849  -2300.345660   6760.887674
VL56 -52500.114000  49405.517000  21930.134000
*  2022  2  1 21 45  0.00000000
PL56   -267.763649  -1364.086592   7035.605135
VL56 -51520.263000  54318.309000   8504.881000
*  2022  2  1 21 48  0.00000000
PL56  -1172.077907   -356.468615   7065.266556
VL56 -48655.449000  57303.091000  -5219.580700
*  2022  2  1 21 51  0.00000000
PL56  -2008.938631    686.331308   6848.756533
VL56 -44055.865000  58208.231000 -18768.297000
*  2022  2  1 21 54  0.00000000
PL56  -2748.943573   1726.076528   6393.486420
VL56 -37933.825000  56957.498000 -31671.374000
*  2022  2  1 21 57  0.00000000
PL56  -3367.007218   2723.871230   5715.164881
VL56 -30555.053000  53554.482000 -43479.362000
*  2022  2  1 22  0  0.00000000
PL56  -3843.231911   3641.622365   4837.293374
VL56 -22228.395000  48084.895000 -53778.395000
*  2022  2  1 22  3  0.00000000
PL56  -4163.578076   4443.514062   3790.388816
VL56 -13293.774000  40715.655000 -62205.224000
*  2022  2  1 22  6  0.00000000
PL56  -4320.304170   5097.438091   2610.947134
VL56  -4108.687900  31690.801000 -68460.972000
*  2022  2  1 22  9  0.00000000
PL56  -4312.152461   5576.317320   1340.171603
VL56   4966.446800  21323.670000 -72323.261000
*  2022  2  1 22 12  0.00000000
PL56  -4144.268581   5859.254708     22.510219
VL56  13582.992000   9985.479800 -73655.199000
*  2022  2  1 22 15  0.00000000
PL56  -3827.859556   5932.453215  -1295.941940
VL56  21418.411000  -1908.690700 -72411.361000
*  2022  2  1 22 18  0.00000000
PL56  -3379.599346   5789.853837  -2569.115047
VL56  28189.936000 -13917.165000 -68639.974000
*  2022  2  1 22 21  0.00000000
PL56  -2820.809706   5433.453244  -3752.627672
VL56  33665.534000 -25589.641000 -62479.476000
*  2022  2  1 22 24  0.00000000
PL56  -2176.467255   4873.292950  -4805.362956
VL56  37672.176000 -36485.442000 -54152.704000
*  2022  2  1 22 27  0.00000000
PL56  -1474.092974   4127.128783  -5690.894507
VL56  40100.763000 -46190.758000 -43956.263000
*  2022  2  1 22 30  0.00000000
PL56   -742.580871   3219.810996  -6378.715010
VL56  40907.976000 -54333.647000 -32249.145000
*  2022  2  1 22 33  0.00000000
PL56    -11.016167   2182.404356  -6845.238689
VL56  40115.512000 -60597.584000 -19438.994000
*  2022  2  1 22 36  0.00000000
PL56    692.467445   1051.088813  -7074.548441
VL56  37806.592000 -64732.265000  -5967.809600
*  2022  2  1 22 39  0.00000000
PL56   1341.748674   -134.111525  -7058.884410
VL56  34120.571000 -66562.084000   7702.441000
*  2022  2  1 22 42  0.00000000
PL56   1913.667909  -1330.733537  -6798.871374
VL56  29245.872000 -65992.561000  21104.528000
*  2022  2  1 22 45  0.00000000
PL56   2388.835378  -2495.371314  -6303.484585
VL56  23411.467000 -63013.866000  33780.208000
*  2022  2  1 22 48  0.00000000
PL56   2752.279961  -3585.221871  -5589.763109
VL56  16877.693000 -57702.938000  45294.008000
*  2022  2  1 22 51  0.00000000
PL56   2993.922914  -4559.646547  -4682.270459
VL56   9926.015700 -50222.980000  55247.834000
*  2022  2  1 22 54  0.00000000
PL56   3108.856973  -5381.691220  -3612.297812
VL56   2847.678400 -40819.245000  63294.375000
*  2022  2  1 22 57  0.00000000
PL56   3097.420458  -6019.509404  -2416.835019
VL56  -4067.643200 -29812.666000  69149.777000
*  2022  2  1 23  0  0.00000000
PL56   2965.062689  -6447.636578  -1137.324582
VL56 -10543.672000 -17589.407000  72604.896000
*  2022  2  1 23  3  0.00000000
PL56   2722.000743  -6648.049653    181.769135
VL56 -16328.820000  -4587.576000  73534.343000
*  2022  2  1 23  6  0.00000000
PL56   2382.676317  -6610.952722   1494.523983
VL56 -21206.884000   8719.725400  71902.165000
*  2022  2  1 23  9  0.00000000
PL56   1965.039067  -6335.246842   2755.191780
VL56 -25005.603000  21842.508000  67763.718000
*  2022  2  1 23 12  0.00000000
PL56   1489.689164  -5828.654051   3919.831073
VL56 -27603.649000  34293.945000  61263.662000
*  2022  2  1 23 15  0.00000000
PL56    978.923060  -5107.491583   4947.864266
VL56 -28934.338000  45608.920000  52629.756000
*  2022  2  1 23 18  0.00000000
PL56    455.730807  -4196.114570   5803.501419
VL56 -28987.268000  55362.223000  42164.546000
*  2022  2  1 23 21  0.00000000
PL56    -57.208722  -3126.050851   6456.981166
VL56 -27806.988000  63184.657000  30233.247000
*  2022  2  1 23 24  0.00000000
PL56   -538.487323  -1934.867979   6885.581795
VL56 -25489.356000  68776.259000  17250.413000
*  2022  2  1 23 27  0.00000000
PL56   -968.842506   -664.830804   7074.380877
VL56 -22175.864000  71916.587000   3665.740800
*  2022  2  1 23 30  0.00000000
PL56  -1331.917341    638.606801   7016.756620
VL56 -18046.563000  72472.932000 -10050.738000
*  2022  2  1 23 33  0.00000000
PL56  -1614.880262   1928.431296   6714.615846
VL56 -13311.581000  70405.281000 -23424.026000
EOF
